{
  "type": "FeatureCollection",
  "features": [
    {
      "type": "Feature",
      "properties": {
        "norad_id": 59600,
        "name": "GSAT0227 (GALILEO 30)",
        "group": "galileo",
        "lat": 15.734998196476358,
        "lon": 117.76473800257946,
        "alt_km": 23221.08994316684,
        "timestamp": "2025-12-08T23:34:04.232593+00:00",
        "meta_object_name": "GSAT0227 (GALILEO 30)",
        "meta_object_id": "2024-079C",
        "meta_epoch": "2025-12-08T08:44:01.424832",
        "meta_mean_motion": 1.70474656,
        "meta_eccentricity": 0.00032972,
        "meta_inclination": 54.9942,
        "meta_ra_of_asc_node": 106.4167,
        "meta_arg_of_pericenter": 114.0276,
        "meta_mean_anomaly": 245.9681,
        "meta_ephemeris_type": 0,
        "meta_classification_type": "U",
        "meta_norad_cat_id": 59600,
        "meta_element_set_no": 999,
        "meta_rev_at_epoch": 1011,
        "meta_bstar": 0,
        "meta_mean_motion_dot": 8e-08,
        "meta_mean_motion_ddot": 0,
        "tle_line1": "1 59600U 24079C   25342.36390538  .00000008  00000+0  00000+0 0  9991",
        "tle_line2": "2 59600  54.9942 106.4167 0003297 114.0276 245.9681  1.70474656 10110"
      },
      "geometry": {
        "type": "Point",
        "coordinates": [
          117.76473800257946,
          15.734998196476358
        ]
      }
    },
    {
      "type": "Feature",
      "properties": {
        "norad_id": 61182,
        "name": "GSAT0232 (GALILEO 32)",
        "group": "galileo",
        "lat": -27.230767535410735,
        "lon": 67.46061339040257,
        "alt_km": 23219.739812139276,
        "timestamp": "2025-12-08T23:34:04.232604+00:00",
        "meta_object_name": "GSAT0232 (GALILEO 32)",
        "meta_object_id": "2024-167A",
        "meta_epoch": "2025-12-08T07:56:10.650912",
        "meta_mean_motion": 1.70473284,
        "meta_eccentricity": 0.0002045,
        "meta_inclination": 55.2425,
        "meta_ra_of_asc_node": 226.5518,
        "meta_arg_of_pericenter": 212.3949,
        "meta_mean_anomaly": 321.7655,
        "meta_ephemeris_type": 0,
        "meta_classification_type": "U",
        "meta_norad_cat_id": 61182,
        "meta_element_set_no": 999,
        "meta_rev_at_epoch": 762,
        "meta_bstar": 0,
        "meta_mean_motion_dot": 1.8e-07,
        "meta_mean_motion_ddot": 0,
        "tle_line1": "1 61182U 24167A   25342.33067883  .00000018  00000+0  00000+0 0  9999",
        "tle_line2": "2 61182  55.2425 226.5518 0002045 212.3949 321.7655  1.70473284  7623"
      },
      "geometry": {
        "type": "Point",
        "coordinates": [
          67.46061339040257,
          -27.230767535410735
        ]
      }
    },
    {
      "type": "Feature",
      "properties": {
        "norad_id": 61183,
        "name": "GSAT0226 (GALILEO 31)",
        "group": "galileo",
        "lat": -27.00199879015564,
        "lon": -154.15499073379834,
        "alt_km": 23227.971159110497,
        "timestamp": "2025-12-08T23:34:04.232615+00:00",
        "meta_object_name": "GSAT0226 (GALILEO 31)",
        "meta_object_id": "2024-167B",
        "meta_epoch": "2025-12-06T09:26:36.340224",
        "meta_mean_motion": 1.70473292,
        "meta_eccentricity": 7.913e-05,
        "meta_inclination": 55.2417,
        "meta_ra_of_asc_node": 226.6105,
        "meta_arg_of_pericenter": 126.2936,
        "meta_mean_anomaly": 51.6212,
        "meta_ephemeris_type": 0,
        "meta_classification_type": "U",
        "meta_norad_cat_id": 61183,
        "meta_element_set_no": 999,
        "meta_rev_at_epoch": 756,
        "meta_bstar": 0,
        "meta_mean_motion_dot": 3.3e-07,
        "meta_mean_motion_ddot": 0,
        "tle_line1": "1 61183U 24167B   25340.39347616  .00000033  00000+0  00000+0 0  9996",
        "tle_line2": "2 61183  55.2417 226.6105 0000791 126.2936  51.6212  1.70473292  7563"
      },
      "geometry": {
        "type": "Point",
        "coordinates": [
          -154.15499073379834,
          -27.00199879015564
        ]
      }
    }
  ]
}